SKYSAT-C11
1 42987U 17068A   18094.37769383  .00000535  00000-0  27028-4 0  9996
2 42987  97.3938 209.6327 0009635 336.6566  23.4231 15.21260166 23446
